[
    {
        "CCSDS_OMM_VERS": "3.0",
        "COMMENT": "GENERATED VIA SPACE-TRACK.ORG API",
        "CREATION_DATE": "2025-03-01T17:52:32",
        "ORIGINATOR": "18 SPCS",
        "OBJECT_NAME": "BD-19",
        "OBJECT_ID": "2015-037B",
        "CENTER_NAME": "EARTH",
        "REF_FRAME": "TEME",
        "TIME_SYSTEM": "UTC",
        "MEAN_ELEMENT_THEORY": "SGP4",
        "EPOCH": "2025-02-28T23:55:03.773280",
        "MEAN_MOTION": "1.86253623",
        "ECCENTRICITY": "0.00045190",
        "INCLINATION": "55.2753",
        "RA_OF_ASC_NODE": "318.2777",
        "ARG_OF_PERICENTER": "8.9425",
        "MEAN_ANOMALY": "351.1243",
        "EPHEMERIS_TYPE": "0",
        "CLASSIFICATION_TYPE": "U",
        "NORAD_CAT_ID": "40749",
        "ELEMENT_SET_NO": "999",
        "REV_AT_EPOCH": "6531",
        "BSTAR": "0.00000000000000",
        "MEAN_MOTION_DOT": "-0.00000048",
        "MEAN_MOTION_DDOT": "0.0000000000000",
        "SEMIMAJOR_AXIS": "27903.929",
        "PERIOD": "773.139",
        "APOAPSIS": "21538.404",
        "PERIAPSIS": "21513.184",
        "OBJECT_TYPE": "PAYLOAD",
        "RCS_SIZE": "LARGE",
        "COUNTRY_CODE": "PRC",
        "LAUNCH_DATE": "2015-07-25",
        "SITE": "XSC",
        "DECAY_DATE": null,
        "FILE": "4656182",
        "GP_ID": "282002261",
        "TLE_LINE0": "0 BD-19",
        "TLE_LINE1": "1 40749U 15037B   25059.99657145 -.00000048  00000-0  00000-0 0  9990",
        "TLE_LINE2": "2 40749  55.2753 318.2777 0004519   8.9425 351.1243  1.86253623 65315"
    }
]